GLOBALSTAR M057         
1 25943U 99058A   24221.15004347 -.00000075  00000+0  16741-3 0  9993
2 25943  51.9970 156.5773 0002532  80.4231 279.6904 12.24790842128579
GLOBALSTAR M059         
1 25944U 99058B   24221.56050431 -.00000143  00000+0 -70898-3 0  9994
2 25944  52.0047 332.9203 0000854  94.0536 332.4466 11.99964873536515
GLOBALSTAR M056         
1 25945U 99058C   24221.57323785 -.00000005  00000+0  95917-3 0  9996
2 25945  51.9993 342.8713 0000313 193.9288 275.2122 12.04774359124941
GLOBALSTAR M031         
1 25946U 99058D   24220.42826152  .00000028  00000+0  12028-2 0  9991
2 25946  51.9944 257.1102 0001403 252.0831 211.6671 12.16013042126370
GLOBALSTAR M039         
1 25961U 99062A   24221.24173263 -.00000048  00000+0  31207-3 0  9996
2 25961  51.9840 141.8672 0003238  18.5444 341.5540 12.62298965140695
GLOBALSTAR M034         
1 25962U 99062B   24221.15597806  .00000018  00000+0  15781-2 0  9994
2 25962  51.9870 105.0779 0013596 167.6411 309.4598 11.79430859101451
GLOBALSTAR M029         
1 25963U 99062C   24221.48786701 -.00000086  00000+0  78415-5 0  9997
2 25963  51.9770 221.4209 0002606 224.5866 300.0118 11.99881483131586
GLOBALSTAR M061         
1 25964U 99062D   24221.54958934 -.00000098  00000+0 -28591-3 0  9996
2 25964  51.9794 283.9484 0006261 100.4478 357.2815 11.76763039 84376
